start=new Date('2023-01-01T00:00:00.000Z').valueOf();
sats=[{"MEAN_MOTION_DDOT":"0.0000000000000","ARG_OF_PERICENTER":"21.8271","COUNTRY_CODE":"US","RCS_SIZE":"LARGE","PERIOD":"95.436","BSTAR":"0.00035742000000","OBJECT_ID":"2022-051M","MEAN_MOTION":"15.08861883","ELEMENT_SET_NO":"999","RA_OF_ASC_NODE":"319.8948","REF_FRAME":"TEME","ECCENTRICITY":"0.00029150","DECAY_DATE":null,"REV_AT_EPOCH":"3563","NORAD_CAT_ID":"52544","OBJECT_NAME":"STARLINK-3944","SITE":"AFWTR","TLE_LINE2":"2 52544  53.2154 319.8948 0002915  21.8271 338.2845 15.08861883 35630","APOAPSIS":"541.695","MEAN_MOTION_DOT":"0.00005408","CENTER_NAME":"EARTH","TLE_LINE1":"1 52544U 22051M   22365.60842445  .00005408  00000-0  35742-3 0  9992","PERIAPSIS":"537.662","LAUNCH_DATE":"2022-05-13","OBJECT_TYPE":"PAYLOAD","TIME_SYSTEM":"UTC","SEMIMAJOR_AXIS":"6917.814","EPOCH":"2022-12-31T14:36:07.872480","MEAN_ANOMALY":"338.2845","GP_ID":"221891593","FILE":"3728081","MEAN_ELEMENT_THEORY":"SGP4","INCLINATION":"53.2154","CLASSIFICATION_TYPE":"U","EPHEMERIS_TYPE":"0"},{"SEMIMAJOR_AXIS":"6917.820","EPOCH":"2022-12-31T20:23:52.973952","MEAN_ANOMALY":"332.4998","TIME_SYSTEM":"UTC","OBJECT_TYPE":"PAYLOAD","CENTER_NAME":"EARTH","LAUNCH_DATE":"2022-05-13","TLE_LINE1":"1 52545U 22051N   22365.84991868  .00007783  00000-0  50626-3 0  9999","PERIAPSIS":"537.895","EPHEMERIS_TYPE":"0","CLASSIFICATION_TYPE":"U","FILE":"3728081","MEAN_ELEMENT_THEORY":"SGP4","INCLINATION":"53.2152","GP_ID":"221892333","OBJECT_ID":"2022-051N","MEAN_MOTION":"15.08859869","RA_OF_ASC_NODE":"313.8146","ELEMENT_SET_NO":"999","BSTAR":"0.00050626000000","RCS_SIZE":"LARGE","PERIOD":"95.436","ARG_OF_PERICENTER":"27.6131","COUNTRY_CODE":"US","MEAN_MOTION_DDOT":"0.0000000000000","MEAN_MOTION_DOT":"0.00007783","TLE_LINE2":"2 52545  53.2152 313.8146 0002587  27.6131 332.4998 15.08859869 35745","SITE":"AFWTR","APOAPSIS":"541.474","REV_AT_EPOCH":"3574","DECAY_DATE":null,"OBJECT_NAME":"STARLINK-3939","NORAD_CAT_ID":"52545","REF_FRAME":"TEME","ECCENTRICITY":"0.00025870"},{"ELEMENT_SET_NO":"999","RA_OF_ASC_NODE":"315.0619","OBJECT_ID":"2022-051P","MEAN_MOTION":"15.08873416","BSTAR":"0.00025604000000","PERIOD":"95.435","RCS_SIZE":"LARGE","MEAN_MOTION_DDOT":"0.0000000000000","COUNTRY_CODE":"US","ARG_OF_PERICENTER":"31.9597","MEAN_MOTION_DOT":"0.00003793","SITE":"AFWTR","TLE_LINE2":"2 52546  53.2150 315.0619 0002877  31.9597 328.1569 15.08873416 35705","APOAPSIS":"541.633","NORAD_CAT_ID":"52546","OBJECT_NAME":"STARLINK-3948","DECAY_DATE":null,"REV_AT_EPOCH":"3570","ECCENTRICITY":"0.00028770","REF_FRAME":"TEME","MEAN_ANOMALY":"328.1569","SEMIMAJOR_AXIS":"6917.778","EPOCH":"2022-12-31T13:42:31.686048","TIME_SYSTEM":"UTC","OBJECT_TYPE":"PAYLOAD","PERIAPSIS":"537.653","TLE_LINE1":"1 52546U 22051P   22365.57120007  .00003793  00000-0  25604-3 0  9994","LAUNCH_DATE":"2022-05-13","CENTER_NAME":"EARTH","EPHEMERIS_TYPE":"0","CLASSIFICATION_TYPE":"U","INCLINATION":"53.2150","FILE":"3728081","MEAN_ELEMENT_THEORY":"SGP4","GP_ID":"221891093"},{"ELEMENT_SET_NO":"999","RA_OF_ASC_NODE":"319.8776","OBJECT_ID":"2022-051Q","MEAN_MOTION":"15.08855132","BSTAR":"0.00041285000000","PERIOD":"95.437","RCS_SIZE":"LARGE","MEAN_MOTION_DDOT":"0.0000000000000","ARG_OF_PERICENTER":"36.3947","COUNTRY_CODE":"US","MEAN_MOTION_DOT":"0.00006291","TLE_LINE2":"2 52547  53.2148 319.8776 0002635  36.3947 323.7224 15.08855132 35703","SITE":"AFWTR","APOAPSIS":"541.522","NORAD_CAT_ID":"52547","OBJECT_NAME":"STARLINK-3869","DECAY_DATE":null,"REV_AT_EPOCH":"3570","ECCENTRICITY":"0.00026350","REF_FRAME":"TEME","MEAN_ANOMALY":"323.7224","SEMIMAJOR_AXIS":"6917.834","EPOCH":"2022-12-31T14:41:26.056032","TIME_SYSTEM":"UTC","OBJECT_TYPE":"PAYLOAD","PERIAPSIS":"537.876","TLE_LINE1":"1 52547U 22051Q   22365.61210713  .00006291  00000-0  41285-3 0  9993","LAUNCH_DATE":"2022-05-13","CENTER_NAME":"EARTH","EPHEMERIS_TYPE":"0","CLASSIFICATION_TYPE":"U","INCLINATION":"53.2148","FILE":"3727971","MEAN_ELEMENT_THEORY":"SGP4","GP_ID":"221812365"},{"MEAN_ELEMENT_THEORY":"SGP4","FILE":"3727988","INCLINATION":"53.2174","GP_ID":"221836370","EPHEMERIS_TYPE":"0","CLASSIFICATION_TYPE":"U","OBJECT_TYPE":"PAYLOAD","CENTER_NAME":"EARTH","LAUNCH_DATE":"2022-05-13","PERIAPSIS":"537.624","TLE_LINE1":"1 52548U 22051R   22365.29056701  .00009618  00000-0  62124-3 0  9994","SEMIMAJOR_AXIS":"6917.821","EPOCH":"2022-12-31T06:58:24.989664","MEAN_ANOMALY":"333.6834","TIME_SYSTEM":"UTC","REV_AT_EPOCH":"3566","DECAY_DATE":null,"OBJECT_NAME":"STARLINK-3931","NORAD_CAT_ID":"52548","REF_FRAME":"TEME","ECCENTRICITY":"0.00029810","MEAN_MOTION_DOT":"0.00009618","APOAPSIS":"541.749","TLE_LINE2":"2 52548  53.2174 316.3225 0002981  26.4310 333.6834 15.08859303 35668","SITE":"AFWTR","RCS_SIZE":"LARGE","PERIOD":"95.436","COUNTRY_CODE":"US","ARG_OF_PERICENTER":"26.4310","MEAN_MOTION_DDOT":"0.0000000000000","MEAN_MOTION":"15.08859303","OBJECT_ID":"2022-051R","RA_OF_ASC_NODE":"316.3225","ELEMENT_SET_NO":"999","BSTAR":"0.00062124000000"},{"SEMIMAJOR_AXIS":"6917.852","EPOCH":"2022-12-31T13:46:26.250816","MEAN_ANOMALY":"312.5159","TIME_SYSTEM":"UTC","OBJECT_TYPE":"PAYLOAD","CENTER_NAME":"EARTH","LAUNCH_DATE":"2022-05-13","TLE_LINE1":"1 52549U 22051S   22365.57391494  .00003212  00000-0  21976-3 0  9991","PERIAPSIS":"538.303","EPHEMERIS_TYPE":"0","CLASSIFICATION_TYPE":"U","FILE":"3728081","MEAN_ELEMENT_THEORY":"SGP4","INCLINATION":"53.2176","GP_ID":"221891833","MEAN_MOTION":"15.08849403","OBJECT_ID":"2022-051S","RA_OF_ASC_NODE":"315.0447","ELEMENT_SET_NO":"999","BSTAR":"0.00021976000000","RCS_SIZE":"LARGE","PERIOD":"95.437","ARG_OF_PERICENTER":"47.6005","COUNTRY_CODE":"US","MEAN_MOTION_DDOT":"0.0000000000000","MEAN_MOTION_DOT":"0.00003212","TLE_LINE2":"2 52549  53.2176 315.0447 0002043  47.6005 312.5159 15.08849403 35709","APOAPSIS":"541.130","SITE":"AFWTR","REV_AT_EPOCH":"3570","DECAY_DATE":null,"OBJECT_NAME":"STARLINK-3935","NORAD_CAT_ID":"52549","REF_FRAME":"TEME","ECCENTRICITY":"0.00020430"},{"TIME_SYSTEM":"UTC","MEAN_ANOMALY":"333.0280","SEMIMAJOR_AXIS":"6917.868","EPOCH":"2022-12-31T13:30:33.307200","PERIAPSIS":"537.606","TLE_LINE1":"1 52550U 22051T   22365.56288550  .00004207  00000-0  28225-3 0  9999","LAUNCH_DATE":"2022-05-13","CENTER_NAME":"EARTH","OBJECT_TYPE":"PAYLOAD","CLASSIFICATION_TYPE":"U","EPHEMERIS_TYPE":"0","GP_ID":"221890593","INCLINATION":"53.2182","FILE":"3728081","MEAN_ELEMENT_THEORY":"SGP4","BSTAR":"0.00028225000000","ELEMENT_SET_NO":"999","RA_OF_ASC_NODE":"315.0980","OBJECT_ID":"2022-051T","MEAN_MOTION":"15.08844117","MEAN_MOTION_DDOT":"0.0000000000000","ARG_OF_PERICENTER":"27.0872","COUNTRY_CODE":"US","PERIOD":"95.437","RCS_SIZE":"LARGE","TLE_LINE2":"2 52550  53.2182 315.0980 0003074  27.0872 333.0280 15.08844117 35709","SITE":"AFWTR","APOAPSIS":"541.859","MEAN_MOTION_DOT":"0.00004207","ECCENTRICITY":"0.00030740","REF_FRAME":"TEME","NORAD_CAT_ID":"52550","OBJECT_NAME":"STARLINK-3965","DECAY_DATE":null,"REV_AT_EPOCH":"3570"},{"SITE":"AFWTR","TLE_LINE2":"2 52551  53.2140 315.0650 0002151  50.6834 309.4349 15.08880900 35706","APOAPSIS":"541.108","MEAN_MOTION_DOT":"0.00010939","REF_FRAME":"TEME","ECCENTRICITY":"0.00021510","REV_AT_EPOCH":"3570","DECAY_DATE":null,"OBJECT_NAME":"STARLINK-3969","NORAD_CAT_ID":"52551","BSTAR":"0.00070352000000","OBJECT_ID":"2022-051U","MEAN_MOTION":"15.08880900","RA_OF_ASC_NODE":"315.0650","ELEMENT_SET_NO":"999","COUNTRY_CODE":"US","ARG_OF_PERICENTER":"50.6834","MEAN_MOTION_DDOT":"0.0000000000000","RCS_SIZE":"LARGE","PERIOD":"95.435","CLASSIFICATION_TYPE":"U","EPHEMERIS_TYPE":"0","GP_ID":"221890843","MEAN_ELEMENT_THEORY":"SGP4","FILE":"3728081","INCLINATION":"53.2140","TIME_SYSTEM":"UTC","SEMIMAJOR_AXIS":"6917.755","EPOCH":"2022-12-31T13:41:09.363264","MEAN_ANOMALY":"309.4349","CENTER_NAME":"EARTH","LAUNCH_DATE":"2022-05-13","PERIAPSIS":"538.132","TLE_LINE1":"1 52551U 22051U   22365.57024726  .00010939  00000-0  70352-3 0  9991","OBJECT_TYPE":"PAYLOAD"},{"TLE_LINE2":"2 52552  53.2176 313.6669 0002824  30.1970 329.9185 15.08864501 35828","APOAPSIS":"541.624","SITE":"AFWTR","MEAN_MOTION_DOT":"0.00003704","ECCENTRICITY":"0.00028240","REF_FRAME":"TEME","NORAD_CAT_ID":"52552","OBJECT_NAME":"STARLINK-3966","DECAY_DATE":null,"REV_AT_EPOCH":"3582","BSTAR":"0.00025057000000","ELEMENT_SET_NO":"999","RA_OF_ASC_NODE":"313.6669","MEAN_MOTION":"15.08864501","OBJECT_ID":"2022-051V","MEAN_MOTION_DDOT":"0.0000000000000","ARG_OF_PERICENTER":"30.1970","COUNTRY_CODE":"US","PERIOD":"95.436","RCS_SIZE":"LARGE","CLASSIFICATION_TYPE":"U","EPHEMERIS_TYPE":"0","GP_ID":"221867537","INCLINATION":"53.2176","MEAN_ELEMENT_THEORY":"SGP4","FILE":"3728064","TIME_SYSTEM":"UTC","MEAN_ANOMALY":"329.9185","SEMIMAJOR_AXIS":"6917.806","EPOCH":"2022-12-31T21:11:34.573056","PERIAPSIS":"537.717","TLE_LINE1":"1 52552U 22051V   22365.88303904  .00003704  00000-0  25057-3 0  9998","LAUNCH_DATE":"2022-05-13","CENTER_NAME":"EARTH","OBJECT_TYPE":"PAYLOAD"},{"CLASSIFICATION_TYPE":"U","EPHEMERIS_TYPE":"0","GP_ID":"221892334","INCLINATION":"53.2167","MEAN_ELEMENT_THEORY":"SGP4","FILE":"3728081","TIME_SYSTEM":"UTC","MEAN_ANOMALY":"335.1408","SEMIMAJOR_AXIS":"6917.818","EPOCH":"2022-12-31T13:35:51.432000","LAUNCH_DATE":"2022-05-13","PERIAPSIS":"537.642","TLE_LINE1":"1 52553U 22051W   22365.56656750  .00006279  00000-0  41200-3 0  9992","CENTER_NAME":"EARTH","OBJECT_TYPE":"PAYLOAD","SITE":"AFWTR","TLE_LINE2":"2 52553  53.2167 315.0813 0002951  24.9727 335.1408 15.08860329 35706","APOAPSIS":"541.725","MEAN_MOTION_DOT":"0.00006279","ECCENTRICITY":"0.00029510","REF_FRAME":"TEME","OBJECT_NAME":"STARLINK-3858","NORAD_CAT_ID":"52553","REV_AT_EPOCH":"3570","DECAY_DATE":null,"BSTAR":"0.00041200000000","RA_OF_ASC_NODE":"315.0813","ELEMENT_SET_NO":"999","MEAN_MOTION":"15.08860329","OBJECT_ID":"2022-051W","ARG_OF_PERICENTER":"24.9727","COUNTRY_CODE":"US","MEAN_MOTION_DDOT":"0.0000000000000","PERIOD":"95.436","RCS_SIZE":"LARGE"}];
